{
  "type": "FeatureCollection",
  "features": [
    {
      "type": "Feature",
      "properties": {
        "norad_id": 31258,
        "name": "FENGYUN 1C DEB",
        "group": "fengyun-1c-debris",
        "lat": -46.77563427356343,
        "lon": 144.77840172021956,
        "alt_km": 531.1888145600506,
        "timestamp": "2025-12-12T09:49:09.013210+00:00",
        "meta_object_name": "FENGYUN 1C DEB",
        "meta_object_id": "1999-025BMQ",
        "meta_epoch": "2025-12-11T08:45:27.950976",
        "meta_mean_motion": 15.12065681,
        "meta_eccentricity": 0.00048639,
        "meta_inclination": 98.8472,
        "meta_ra_of_asc_node": 134.0301,
        "meta_arg_of_pericenter": 307.9809,
        "meta_mean_anomaly": 82.5742,
        "meta_ephemeris_type": 0,
        "meta_classification_type": "U",
        "meta_norad_cat_id": 31258,
        "meta_element_set_no": 999,
        "meta_rev_at_epoch": 97090,
        "meta_bstar": 0.019210559,
        "meta_mean_motion_dot": 0.00346581,
        "meta_mean_motion_ddot": 0,
        "tle_line1": "1 31258U 99025BMQ 25345.36490684  .00346581  00000+0  19211-1 0  9994",
        "tle_line2": "2 31258  98.8472 134.0301 0004863 307.9809  82.5742 15.12065681970906"
      },
      "geometry": {
        "type": "Point",
        "coordinates": [
          144.77840172021956,
          -46.77563427356343
        ]
      }
    },
    {
      "type": "Feature",
      "properties": {
        "norad_id": 31259,
        "name": "FENGYUN 1C DEB",
        "group": "fengyun-1c-debris",
        "lat": -25.31507377882797,
        "lon": 69.90561529769899,
        "alt_km": 882.7763177153802,
        "timestamp": "2025-12-12T09:49:09.013221+00:00",
        "meta_object_name": "FENGYUN 1C DEB",
        "meta_object_id": "1999-025BMR",
        "meta_epoch": "2025-12-10T20:55:32.869344",
        "meta_mean_motion": 14.15005449,
        "meta_eccentricity": 0.0065781,
        "meta_inclination": 99.0092,
        "meta_ra_of_asc_node": 64.0502,
        "meta_arg_of_pericenter": 201.089,
        "meta_mean_anomaly": 226.5155,
        "meta_ephemeris_type": 0,
        "meta_classification_type": "U",
        "meta_norad_cat_id": 31259,
        "meta_element_set_no": 999,
        "meta_rev_at_epoch": 95543,
        "meta_bstar": 0.0027446,
        "meta_mean_motion_dot": 5.383e-05,
        "meta_mean_motion_ddot": 0,
        "tle_line1": "1 31259U 99025BMR 25344.87190821  .00005383  00000+0  27446-2 0  9992",
        "tle_line2": "2 31259  99.0092  64.0502 0065781 201.0890 226.5155 14.15005449955430"
      },
      "geometry": {
        "type": "Point",
        "coordinates": [
          69.90561529769899,
          -25.31507377882797
        ]
      }
    },
    {
      "type": "Feature",
      "properties": {
        "norad_id": 31260,
        "name": "FENGYUN 1C DEB",
        "group": "fengyun-1c-debris",
        "lat": 32.35081433328833,
        "lon": -122.39654361629569,
        "alt_km": 773.6457287735539,
        "timestamp": "2025-12-12T09:49:09.013231+00:00",
        "meta_object_name": "FENGYUN 1C DEB",
        "meta_object_id": "1999-025BMS",
        "meta_epoch": "2025-12-10T16:00:46.162080",
        "meta_mean_motion": 14.36408342,
        "meta_eccentricity": 0.0047191,
        "meta_inclination": 98.9558,
        "meta_ra_of_asc_node": 241.526,
        "meta_arg_of_pericenter": 298.7563,
        "meta_mean_anomaly": 91.017,
        "meta_ephemeris_type": 0,
        "meta_classification_type": "U",
        "meta_norad_cat_id": 31260,
        "meta_element_set_no": 999,
        "meta_rev_at_epoch": 97164,
        "meta_bstar": 0.0017132,
        "meta_mean_motion_dot": 5.038e-05,
        "meta_mean_motion_ddot": 0,
        "tle_line1": "1 31260U 99025BMS 25344.66720095  .00005038  00000+0  17132-2 0  9991",
        "tle_line2": "2 31260  98.9558 241.5260 0047191 298.7563  91.0170 14.36408342971640"
      },
      "geometry": {
        "type": "Point",
        "coordinates": [
          -122.39654361629569,
          32.35081433328833
        ]
      }
    },
    {
      "type": "Feature",
      "properties": {
        "norad_id": 31261,
        "name": "FENGYUN 1C DEB",
        "group": "fengyun-1c-debris",
        "lat": 42.943910761980966,
        "lon": -68.69565208137338,
        "alt_km": 789.7011566815163,
        "timestamp": "2025-12-12T09:49:09.013242+00:00",
        "meta_object_name": "FENGYUN 1C DEB",
        "meta_object_id": "1999-025BMT",
        "meta_epoch": "2025-12-11T20:16:31.488960",
        "meta_mean_motion": 14.40075644,
        "meta_eccentricity": 0.0049938,
        "meta_inclination": 99.0154,
        "meta_ra_of_asc_node": 299.2076,
        "meta_arg_of_pericenter": 235.6229,
        "meta_mean_anomaly": 124.0229,
        "meta_ephemeris_type": 0,
        "meta_classification_type": "U",
        "meta_norad_cat_id": 31261,
        "meta_element_set_no": 999,
        "meta_rev_at_epoch": 97337,
        "meta_bstar": 0.0016627,
        "meta_mean_motion_dot": 5.277e-05,
        "meta_mean_motion_ddot": 0,
        "tle_line1": "1 31261U 99025BMT 25345.84480890  .00005277  00000+0  16627-2 0  9992",
        "tle_line2": "2 31261  99.0154 299.2076 0049938 235.6229 124.0229 14.40075644973374"
      },
      "geometry": {
        "type": "Point",
        "coordinates": [
          -68.69565208137338,
          42.943910761980966
        ]
      }
    },
    {
      "type": "Feature",
      "properties": {
        "norad_id": 31262,
        "name": "FENGYUN 1C DEB",
        "group": "fengyun-1c-debris",
        "lat": 80.78209654821656,
        "lon": -7.811250040048844,
        "alt_km": 785.0301968645281,
        "timestamp": "2025-12-12T09:49:09.013252+00:00",
        "meta_object_name": "FENGYUN 1C DEB",
        "meta_object_id": "1999-025BMU",
        "meta_epoch": "2025-12-12T04:27:55.392192",
        "meta_mean_motion": 14.18179117,
        "meta_eccentricity": 0.0055111,
        "meta_inclination": 99.0033,
        "meta_ra_of_asc_node": 69.6362,
        "meta_arg_of_pericenter": 99.6223,
        "meta_mean_anomaly": 290.2814,
        "meta_ephemeris_type": 0,
        "meta_classification_type": "U",
        "meta_norad_cat_id": 31262,
        "meta_element_set_no": 999,
        "meta_rev_at_epoch": 95701,
        "meta_bstar": 0.0026932,
        "meta_mean_motion_dot": 5.576e-05,
        "meta_mean_motion_ddot": 0,
        "tle_line1": "1 31262U 99025BMU 25346.18605778  .00005576  00000+0  26932-2 0  9997",
        "tle_line2": "2 31262  99.0033  69.6362 0055111  99.6223 290.2814 14.18179117957014"
      },
      "geometry": {
        "type": "Point",
        "coordinates": [
          -7.811250040048844,
          80.78209654821656
        ]
      }
    },
    {
      "type": "Feature",
      "properties": {
        "norad_id": 31263,
        "name": "FENGYUN 1C DEB",
        "group": "fengyun-1c-debris",
        "lat": -54.873362358775324,
        "lon": -76.48411914651523,
        "alt_km": 433.1787376913262,
        "timestamp": "2025-12-12T09:49:09.013262+00:00",
        "meta_object_name": "FENGYUN 1C DEB",
        "meta_object_id": "1999-025BMV",
        "meta_epoch": "2025-12-10T05:20:59.404128",
        "meta_mean_motion": 15.46423657,
        "meta_eccentricity": 0.0022969,
        "meta_inclination": 98.9891,
        "meta_ra_of_asc_node": 267.7937,
        "meta_arg_of_pericenter": 120.0043,
        "meta_mean_anomaly": 240.3485,
        "meta_ephemeris_type": 0,
        "meta_classification_type": "U",
        "meta_norad_cat_id": 31263,
        "meta_element_set_no": 999,
        "meta_rev_at_epoch": 97127,
        "meta_bstar": 0.022467,
        "meta_mean_motion_dot": 0.01232313,
        "meta_mean_motion_ddot": 0,
        "tle_line1": "1 31263U 99025BMV 25344.22290977  .01232313  00000+0  22467-1 0  9992",
        "tle_line2": "2 31263  98.9891 267.7937 0022969 120.0043 240.3485 15.46423657971275"
      },
      "geometry": {
        "type": "Point",
        "coordinates": [
          -76.48411914651523,
          -54.873362358775324
        ]
      }
    },
    {
      "type": "Feature",
      "properties": {
        "norad_id": 31264,
        "name": "FENGYUN 1C DEB",
        "group": "fengyun-1c-debris",
        "lat": 59.16989176927188,
        "lon": -132.21974487077404,
        "alt_km": 823.847086362086,
        "timestamp": "2025-12-12T09:49:09.013273+00:00",
        "meta_object_name": "FENGYUN 1C DEB",
        "meta_object_id": "1999-025BMW",
        "meta_epoch": "2025-12-11T16:44:17.722176",
        "meta_mean_motion": 14.18586493,
        "meta_eccentricity": 0.00011369,
        "meta_inclination": 99.1141,
        "meta_ra_of_asc_node": 242.6522,
        "meta_arg_of_pericenter": 10.8338,
        "meta_mean_anomaly": 17.0349,
        "meta_ephemeris_type": 0,
        "meta_classification_type": "U",
        "meta_norad_cat_id": 31264,
        "meta_element_set_no": 999,
        "meta_rev_at_epoch": 96414,
        "meta_bstar": 0.00084303371,
        "meta_mean_motion_dot": 1.699e-05,
        "meta_mean_motion_ddot": 0,
        "tle_line1": "1 31264U 99025BMW 25345.69742734  .00001699  00000+0  84303-3 0  9997",
        "tle_line2": "2 31264  99.1141 242.6522 0001136  10.8338  17.0349 14.18586493964147"
      },
      "geometry": {
        "type": "Point",
        "coordinates": [
          -132.21974487077404,
          59.16989176927188
        ]
      }
    }
  ]
}